ONEWEB-0199             
1 48234U 21031AA  25132.12072027  .00000149  00000+0  36780-3 0  9992
2 48234  87.9069   9.4731 0001751  78.1811 281.9515 13.14503125195579
ONEWEB-0203             
1 48235U 21031AB  25131.73062943  .00000254  00000+0  65075-3 0  9991
2 48235  87.9071   9.5530 0001535  84.2595 275.8709 13.14505131195530
ONEWEB-0197             
1 48236U 21031AC  25132.39108738 -.00000307  00000+0 -86194-3 0  9994
2 48236  87.9056   9.4303 0002074  78.3857 281.7506 13.14503363195531
ONEWEB-0194             
1 48237U 21031AD  25132.36969712 -.00000177  00000+0 -51262-3 0  9992
2 48237  87.9071   9.4334 0001618  77.2440 282.8871 13.14501765195702
ONEWEB-0193             
1 48238U 21031AE  25132.38555497 -.00000293  00000+0 -82361-3 0  9999
2 48238  87.9068   9.4376 0001716  85.9022 274.2303 13.14503022195653
ONEWEB-0191             
1 48239U 21031AF  25132.39665452  .00000024  00000+0  29725-4 0  9990
2 48239  87.9066   9.4094 0001531  84.8984 275.2320 13.14502226195519
ONEWEB-0195             
1 48240U 21031AG  25132.22141989 -.00000186  00000+0 -53517-3 0  9994
2 48240  87.9067   9.4421 0001828  95.0268 265.1070 13.14505277195478
ONEWEB-0201             
1 48241U 21031AH  25132.13354420 -.00000008  00000+0 -56553-4 0  9998
2 48241  87.9071   9.5047 0002044  86.0504 274.0859 13.14502840195694
